{
    "links": {
        "self": "http://www.neowsapp.com/rest/v1/neo/3794975?api_key=iIulBulltgU6a56xZRHN4H3l9WmuAYTsLGpBGhQ2"
    },
    "id": "3794975",
    "neo_reference_id": "3794975",
    "name": "(2017 YQ1)",
    "designation": "2017 YQ1",
    "nasa_jpl_url": "http://ssd.jpl.nasa.gov/sbdb.cgi?sstr=3794975",
    "absolute_magnitude_h": 24.6,
    "estimated_diameter": {
        "kilometers": {
            "estimated_diameter_min": 0.0319561887,
            "estimated_diameter_max": 0.0714562102
        },
        "meters": {
            "estimated_diameter_min": 31.9561886721,
            "estimated_diameter_max": 71.4562101727
        },
        "miles": {
            "estimated_diameter_min": 0.0198566489,
            "estimated_diameter_max": 0.0444008168
        },
        "feet": {
            "estimated_diameter_min": 104.8431420431,
            "estimated_diameter_max": 234.436392583
        }
    },
    "is_potentially_hazardous_asteroid": false,
    "close_approach_data": [
        {
            "close_approach_date": "2017-12-26",
            "close_approach_date_full": "2017-Dec-26 13:25",
            "epoch_date_close_approach": 1514294700000,
            "relative_velocity": {
                "kilometers_per_second": "21.1067219662",
                "kilometers_per_hour": "75984.1990782516",
                "miles_per_hour": "47213.6263661503"
            },
            "miss_distance": {
                "astronomical": "0.0131821882",
                "lunar": "5.1278712098",
                "kilometers": "1972027.276659134",
                "miles": "1225360.9289746892"
            },
            "orbiting_body": "Earth"
        },
        {
            "close_approach_date": "2022-09-28",
            "close_approach_date_full": "2022-Sep-28 05:11",
            "epoch_date_close_approach": 1664341860000,
            "relative_velocity": {
                "kilometers_per_second": "7.2958727159",
                "kilometers_per_hour": "26265.1417771703",
                "miles_per_hour": "16320.1376781534"
            },
            "miss_distance": {
                "astronomical": "1.7941824142",
                "lunar": "697.9369591238",
                "kilometers": "268405867.555777754",
                "miles": "166779672.4229868452"
            },
            "orbiting_body": "Juptr"
        }
    ],
    "orbital_data": {
        "orbit_id": "3",
        "orbit_determination_date": "2018-01-12 06:23:11",
        "first_observation_date": "2017-12-22",
        "last_observation_date": "2017-12-24",
        "data_arc_in_days": 2,
        "observations_used": 32,
        "orbit_uncertainty": "8",
        "minimum_orbit_intersection": ".0129069",
        "jupiter_tisserand_invariant": "3.271",
        "epoch_osculation": "2458110.5",
        "eccentricity": ".7094042901761395",
        "semi_major_axis": "2.189036924592424",
        "inclination": "12.09159876157628",
        "ascending_node_longitude": "98.23168909165958",
        "orbital_period": "1182.981785525011",
        "perihelion_distance": ".6361247389325762",
        "perihelion_argument": "77.63194875042956",
        "aphelion_distance": "3.741949110252272",
        "perihelion_time": "2458157.920834327623",
        "mean_anomaly": "345.5690928069802",
        "mean_motion": ".3043157590463076",
        "equinox": "J2000",
        "orbit_class": {
            "orbit_class_type": "APO",
            "orbit_class_description": "Near-Earth asteroid orbits which cross the Earth’s orbit similar to that of 1862 Apollo",
            "orbit_class_range": "a (semi-major axis) > 1.0 AU; q (perihelion) < 1.017 AU"
        }
    },
    "is_sentry_object": false
}